OBJECT_NAME,OBJECT_ID,EPOCH,MEAN_MOTION,ECCENTRICITY,INCLINATION,RA_OF_ASC_NODE,ARG_OF_PERICENTER,MEAN_ANOMALY,EPHEMERIS_TYPE,CLASSIFICATION_TYPE,NORAD_CAT_ID,ELEMENT_SET_NO,REV_AT_EPOCH,BSTAR,MEAN_MOTION_DOT,MEAN_MOTION_DDOT
DUCHIFAT-1,2014-033M,2026-06-10T10:21:09.914400,15.63249626,.00041976,98.0468,219.6499,126.9864,233.1777,0,U,40021,999,65469,.10615932E-2,.98092E-3,0
NANOSATC-BR1,2014-033Q,2026-06-10T12:58:13.395648,15.31244609,.00037786,98.0734,193.3401,181.7238,178.3988,0,U,40024,999,65296,.49266744E-3,.14797E-3,0
QB50P1,2014-033R,2026-06-10T13:25:18.984000,15.18160069,.00072406,98.0970,172.2408,241.5773,118.4730,0,U,40025,999,65202,.35728158E-3,.7227E-4,0
DTUSAT-2,2014-033W,2026-06-10T12:01:19.334208,15.14932323,.00061861,98.0861,158.8038,253.0774,106.9779,0,U,40030,999,65167,.30624998E-3,.5635E-4,0
QB50P2,2014-033Y,2026-06-10T11:53:58.358112,15.15072964,.00073027,98.0751,157.9598,184.9608,175.1552,0,U,40032,999,65165,.31530919E-3,.5829E-4,0
PERSEUS-M1,2014-033AF,2026-06-10T13:07:03.664416,14.95613103,.0010696,97.9645,105.5698,326.6883,33.3663,0,U,40039,999,64964,.12218588E-3,.1297E-4,0
POLYITAN-1,2014-033AJ,2026-06-10T14:10:50.161440,15.33024156,.00081494,98.0952,187.2288,160.1967,199.9591,0,U,40042,999,65258,.50688944E-3,.16113E-3,0
TIGRISAT,2014-033AK,2026-06-10T04:13:50.355264,14.85135319,.0050709,97.7822,311.3494,97.5926,263.1053,0,U,40043,999,64458,.24109E-3,.2056E-4,0
AISAT,2014-034B,2026-06-10T11:09:52.760736,15.08698884,.00074566,98.2392,73.3824,239.1523,120.8970,0,U,40054,999,64619,.53427541E-3,.8314E-4,0
CANX-4,2014-034C,2026-06-10T14:23:14.364384,14.81252527,.00136037,98.3131,36.6704,37.2327,322.9825,0,U,40055,999,64355,.11135788E-3,.811E-5,0
CANX-5,2014-034D,2026-06-10T14:21:05.595552,14.81269696,.00136144,98.3133,36.7122,37.3826,322.8330,0,U,40056,999,63436,.11204197E-3,.817E-5,0
VELOX-I,2014-034E,2026-06-10T13:52:56.092800,14.97824831,.0006414,98.2547,66.2076,303.6526,56.4082,0,U,40057,999,64561,.36026934E-3,.4171E-4,0
GONETS-M 10,2014-036C,2026-06-10T15:08:36.346272,12.42945606,.00224168,82.5110,311.7477,154.3973,205.8222,0,U,40063,999,54143,.41281741E-3,.67E-6,0
METEOR-M 2,2014-037A,2026-06-10T14:23:01.783680,14.21459460,.00069729,98.5110,137.5710,60.2698,299.9173,0,U,40069,999,61838,.2051739E-5,-.38E-6,0
DX1,2014-037C,2026-06-10T13:53:19.533984,14.89965546,.00059128,98.3861,122.8791,302.1585,57.9057,0,U,40071,999,64512,.18168977E-3,.1688E-4,0
UKUBE-1,2014-037F,2026-06-10T11:46:50.885472,15.13445461,.00021761,98.4238,164.0595,142.7393,217.3987,0,U,40074,999,64754,.45885898E-3,.8128E-4,0
GAOFEN-2,2014-049A,2026-06-10T14:56:04.217856,14.80894215,.00058712,98.0111,225.8360,252.9296,107.1273,0,U,40118,999,63826,.14315254E-3,.1053E-4,0
BRITE-PL2 (HEWELIUSZ),2014-049B,2026-06-10T13:03:51.118560,14.94573225,.00151516,97.9091,273.4936,128.1527,232.1061,0,U,40119,999,64045,.14098481E-3,.1468E-4,0
CBERS 4,2014-079A,2026-06-10T14:59:27.954240,14.35508325,.00019974,98.3534,218.6621,69.6838,290.4562,0,U,40336,999,60301,.13442324E-3,.344E-5,0
SMAP,2015-003A,2026-06-10T14:01:08.658336,14.63360771,.00012804,98.1276,168.7722,93.7026,266.4322,0,U,40376,999,60665,.81225142E-4,.373E-5,0
GONETS-M 11,2015-020A,2026-06-10T15:34:38.606880,12.42876887,.00169029,82.4876,35.0658,19.5525,340.6200,0,U,40552,999,50792,-.13882715E-3,-.9E-7,0
GONETS-M 12,2015-020B,2026-06-10T14:56:34.423296,12.42891132,.0015653,82.4910,36.2043,5.0878,355.0358,0,U,40553,999,50791,.20714519E-3,.39E-6,0
GONETS-M 13,2015-020C,2026-06-10T14:18:13.701888,12.42869970,.00139829,82.4871,34.8380,350.7646,9.3174,0,U,40554,999,50788,-.23058731E-3,-.22E-6,0
DMC3-FM1,2015-032A,2026-06-10T14:31:32.564064,14.85732509,.00072064,97.6476,27.0383,76.7397,283.4622,0,U,40715,999,58893,.72542183E-4,.579E-5,0
DMC3-FM2,2015-032B,2026-06-10T15:03:20.140416,14.85734581,.00076346,97.6528,28.6284,80.7291,279.4787,0,U,40716,999,58893,-.52745E-6,-.56E-6,0
DMC3-FM3,2015-032C,2026-06-10T15:36:51.624864,14.85725242,.00068276,97.6579,30.3995,81.2690,278.9299,0,U,40717,999,58894,.59666844E-4,.467E-5,0
CARBONITE 1 (CBNT-1),2015-032D,2026-06-10T15:21:57.553344,14.83565763,.00136123,97.6509,339.9814,321.2933,38.7305,0,U,40718,999,58837,.15466211E-3,.1225E-4,0
DEORBITSAIL,2015-032E,2026-06-10T13:40:45.124608,15.03760332,.00113956,97.5892,18.5241,256.5482,103.4474,0,U,40719,999,59025,.43477002E-3,.5918E-4,0
2015-049G,2015-049G,2026-06-10T14:18:00.950976,15.65922925,.0004486,97.4564,205.2747,214.3633,145.7337,0,U,40905,999,59541,.37803783E-3,.38457E-3,0
LILACSAT-2,2015-049K,2026-06-10T13:32:09.004704,15.51225787,.00052855,97.4660,198.1544,277.2208,82.8443,0,U,40908,999,59472,.27469889E-3,.15995E-3,0
